{
  "links" : {
    "next" : "https://api.nasa.gov/neo/rest/v1/feed?start_date=2009-02-23&end_date=2009-02-23&detailed=true&api_key=t0TVs3DtDT2H8Oy2Zy8m2eVrNsAVKAexjcZXUckd",
    "prev" : "https://api.nasa.gov/neo/rest/v1/feed?start_date=2009-02-21&end_date=2009-02-21&detailed=true&api_key=t0TVs3DtDT2H8Oy2Zy8m2eVrNsAVKAexjcZXUckd",
    "self" : "https://api.nasa.gov/neo/rest/v1/feed?start_date=2009-02-22&end_date=2009-02-22&detailed=true&api_key=t0TVs3DtDT2H8Oy2Zy8m2eVrNsAVKAexjcZXUckd"
  },
  "element_count" : 8,
  "near_earth_objects" : {
    "2009-02-22" : [ {
      "links" : {
        "self" : "https://api.nasa.gov/neo/rest/v1/neo/3443811?api_key=t0TVs3DtDT2H8Oy2Zy8m2eVrNsAVKAexjcZXUckd"
      },
      "neo_reference_id" : "3443811",
      "name" : "(2009 AL)",
      "nasa_jpl_url" : "http://ssd.jpl.nasa.gov/sbdb.cgi?sstr=3443811",
      "absolute_magnitude_h" : 21.8,
      "estimated_diameter" : {
        "kilometers" : {
          "estimated_diameter_min" : 0.1160259082,
          "estimated_diameter_max" : 0.2594418179
        },
        "meters" : {
          "estimated_diameter_min" : 116.0259082094,
          "estimated_diameter_max" : 259.4418179074
        },
        "miles" : {
          "estimated_diameter_min" : 0.0720951346,
          "estimated_diameter_max" : 0.1612096218
        },
        "feet" : {
          "estimated_diameter_min" : 380.6624406898,
          "estimated_diameter_max" : 851.1870938635
        }
      },
      "is_potentially_hazardous_asteroid" : true,
      "close_approach_data" : [ {
        "close_approach_date" : "2009-02-22",
        "epoch_date_close_approach" : 1235289600000,
        "relative_velocity" : {
          "kilometers_per_second" : "12.4225108355",
          "kilometers_per_hour" : "44721.0390076369",
          "miles_per_hour" : "27787.9144878286"
        },
        "miss_distance" : {
          "astronomical" : "0.1662157471",
          "lunar" : "64.6579284668",
          "kilometers" : "24865522",
          "miles" : "15450719"
        },
        "orbiting_body" : "Earth"
      } ],
      "orbital_data" : {
        "orbit_id" : "16",
        "orbit_determination_date" : "2017-04-06 09:01:43",
        "orbit_uncertainty" : "7",
        "minimum_orbit_intersection" : ".0110233",
        "jupiter_tisserand_invariant" : "3.120",
        "epoch_osculation" : "2458000.5",
        "eccentricity" : ".6646104689230873",
        "semi_major_axis" : "2.491499259132092",
        "inclination" : "3.932545027864432",
        "ascending_node_longitude" : "223.9732008352405",
        "orbital_period" : "1436.446880207564",
        "perihelion_distance" : ".8356227681987878",
        "perihelion_argument" : "313.9301758606542",
        "aphelion_distance" : "4.147375750065396",
        "perihelion_time" : "2457775.201493408622",
        "mean_anomaly" : "56.46394829523828",
        "mean_motion" : ".250618386910333",
        "equinox" : "J2000"
      }
    }, {
      "links" : {
        "self" : "https://api.nasa.gov/neo/rest/v1/neo/2309662?api_key=t0TVs3DtDT2H8Oy2Zy8m2eVrNsAVKAexjcZXUckd"
      },
      "neo_reference_id" : "2309662",
      "name" : "309662 (2008 EE)",
      "nasa_jpl_url" : "http://ssd.jpl.nasa.gov/sbdb.cgi?sstr=2309662",
      "absolute_magnitude_h" : 19.8,
      "estimated_diameter" : {
        "kilometers" : {
          "estimated_diameter_min" : 0.2914439045,
          "estimated_diameter_max" : 0.6516883822
        },
        "meters" : {
          "estimated_diameter_min" : 291.4439045349,
          "estimated_diameter_max" : 651.6883821679
        },
        "miles" : {
          "estimated_diameter_min" : 0.1810947904,
          "estimated_diameter_max" : 0.4049402617
        },
        "feet" : {
          "estimated_diameter_min" : 956.1808197541,
          "estimated_diameter_max" : 2138.0853117517
        }
      },
      "is_potentially_hazardous_asteroid" : false,
      "close_approach_data" : [ {
        "close_approach_date" : "2009-02-22",
        "epoch_date_close_approach" : 1235289600000,
        "relative_velocity" : {
          "kilometers_per_second" : "9.3898393033",
          "kilometers_per_hour" : "33803.4214917025",
          "miles_per_hour" : "21004.1315374415"
        },
        "miss_distance" : {
          "astronomical" : "0.2186356801",
          "lunar" : "85.0492782593",
          "kilometers" : "32707432",
          "miles" : "20323456"
        },
        "orbiting_body" : "Earth"
      } ],
      "orbital_data" : {
        "orbit_id" : "80",
        "orbit_determination_date" : "2017-04-06 09:23:56",
        "orbit_uncertainty" : "1",
        "minimum_orbit_intersection" : ".138726",
        "jupiter_tisserand_invariant" : "6.118",
        "epoch_osculation" : "2458000.5",
        "eccentricity" : ".2119744503538123",
        "semi_major_axis" : ".9813412559595676",
        "inclination" : "16.15520761541733",
        "ascending_node_longitude" : "343.5854359575007",
        "orbital_period" : "355.0818816030042",
        "perihelion_distance" : ".7733219826180183",
        "perihelion_argument" : "332.4283668219159",
        "aphelion_distance" : "1.189360529301117",
        "perihelion_time" : "2457883.868730837212",
        "mean_anomaly" : "118.2466892116648",
        "mean_motion" : "1.013850659951426",
        "equinox" : "J2000"
      }
    }, {
      "links" : {
        "self" : "https://api.nasa.gov/neo/rest/v1/neo/2455594?api_key=t0TVs3DtDT2H8Oy2Zy8m2eVrNsAVKAexjcZXUckd"
      },
      "neo_reference_id" : "2455594",
      "name" : "455594 (2004 SV55)",
      "nasa_jpl_url" : "http://ssd.jpl.nasa.gov/sbdb.cgi?sstr=2455594",
      "absolute_magnitude_h" : 18.0,
      "estimated_diameter" : {
        "kilometers" : {
          "estimated_diameter_min" : 0.6676594135,
          "estimated_diameter_max" : 1.4929318344
        },
        "meters" : {
          "estimated_diameter_min" : 667.6594134952,
          "estimated_diameter_max" : 1492.931834393
        },
        "miles" : {
          "estimated_diameter_min" : 0.4148641974,
          "estimated_diameter_max" : 0.9276645469
        },
        "feet" : {
          "estimated_diameter_min" : 2190.4837101717,
          "estimated_diameter_max" : 4898.07047955
        }
      },
      "is_potentially_hazardous_asteroid" : false,
      "close_approach_data" : [ {
        "close_approach_date" : "2009-02-22",
        "epoch_date_close_approach" : 1235289600000,
        "relative_velocity" : {
          "kilometers_per_second" : "37.9367522992",
          "kilometers_per_hour" : "136572.308276981",
          "miles_per_hour" : "84860.7212179941"
        },
        "miss_distance" : {
          "astronomical" : "0.3906605695",
          "lunar" : "151.9669647217",
          "kilometers" : "58441992",
          "miles" : "36314172"
        },
        "orbiting_body" : "Earth"
      } ],
      "orbital_data" : {
        "orbit_id" : "44",
        "orbit_determination_date" : "2017-04-06 09:19:56",
        "orbit_uncertainty" : "0",
        "minimum_orbit_intersection" : ".0908576",
        "jupiter_tisserand_invariant" : "3.617",
        "epoch_osculation" : "2458000.5",
        "eccentricity" : ".658253761871226",
        "semi_major_axis" : "1.758951796103146",
        "inclination" : "41.16805487882969",
        "ascending_node_longitude" : "344.6001518923252",
        "orbital_period" : "852.0779633208997",
        "perihelion_distance" : ".6011151593681003",
        "perihelion_argument" : "280.8127891412237",
        "aphelion_distance" : "2.916788432838191",
        "perihelion_time" : "2458338.742863366277",
        "mean_anomaly" : "217.0935570997731",
        "mean_motion" : ".4224965501946927",
        "equinox" : "J2000"
      }
    } ]
  }
}